FLOCK 4G-18             
1 62680U 25009BZ  26095.50652968  .00013584  00000+0  49978-3 0  9991
2 62680  97.4023 177.6259 0004691 211.2397 148.8565 15.27979737125430
FLOCK 4G-17             
1 62681U 25009CA  26095.48016207  .00016119  00000+0  59025-3 0  9990
2 62681  97.3939 177.3394 0004119 213.9408 146.1569 15.28098703125442
FLOCK 4G-33             
1 62685U 25009CE  26095.48148789  .00009001  00000+0  36756-3 0  9993
2 62685  97.3960 176.2308 0004871 210.4531 149.6424 15.24611405 67727
PELICAN-3               
1 65315U 25188A   26095.17543445  .00012007  00000+0  29621-3 0  9991
2 65315  97.2200 172.4106 0005492 204.3225 155.7764 15.40665137 34078
PELICAN-4               
1 65316U 25188B   26095.45085131  .00009062  00000+0  22418-3 0  9990
2 65316  97.2277 172.8047 0004671 213.2217 146.8737 15.40661204 34116
PELICAN-5               
1 66667U 25276B   26095.48765934  .00006243  00000+0  22999-3 0  9999
2 66667  97.4195 170.7419 0002352 230.7520 129.3511 15.28185004 19419
PELICAN-6               
1 66703U 25276AP  26095.49461047  .00006878  00000+0  25102-3 0  9992
2 66703  97.4230 170.8908 0002742  91.9537 268.2016 15.28456329 19427
FLOCK 4H-1              
1 66704U 25276AQ  26095.44334125  .00007998  00000+0  37698-3 0  9991
2 66704  97.4206 170.3125 0002102 169.3540 190.7740 15.19758315 19389
FLOCK 4H-2              
1 66705U 25276AR  26095.17077629  .00009399  00000+0  43944-3 0  9993
2 66705  97.4203 170.0592 0001408 153.7169 206.4138 15.19990617 19349
FLOCK 4H-3              
1 66706U 25276AS  26095.23434757  .00008930  00000+0  42832-3 0  9995
2 66706  97.4272 170.0891 0002755 242.3117 117.7838 15.19117772 19346
FLOCK 4H-4              
1 66707U 25276AT  26095.45276485  .00008328  00000+0  40232-3 0  9995
2 66707  97.4254 170.2284 0003341 245.1475 114.9412 15.18885706 19373
FLOCK 4H-5              
1 66708U 25276AU  26095.17553627  .00008438  00000+0  39723-3 0  9996
2 66708  97.4207 170.0637 0001331 130.6206 229.5144 15.19782116 19343
FLOCK 4H-6              
1 66709U 25276AV  26095.20027339  .00009316  00000+0  44233-3 0  9995
2 66709  97.4259 170.1139 0002599 197.5802 162.5343 15.19456834 19342
FLOCK 4H-7              
1 66710U 25276AW  26095.16571491  .00009494  00000+0  45412-3 0  9992
2 66710  97.4215 169.9303 0000853 287.6627  72.4514 15.19194952 19330
FLOCK 4H-8              
1 66711U 25276AX  26095.22844976  .00010209  00000+0  48705-3 0  9995
2 66711  97.4255 170.0749 0002120 263.1405  96.9589 15.19266852 19347
FLOCK 4H-9              
1 66712U 25276AY  26095.45957357  .00008831  00000+0  41799-3 0  9993
2 66712  97.4243 170.3639 0002554 207.0342 153.0760 15.19581390 19381
